NORAD_CAT_ID,OBJECT_NAME,OBJECT_TYPE,EPOCH,MEAN_MOTION,ECCENTRICITY,INCLINATION,RA_OF_ASC_NODE,ARG_OF_PERICENTER,MEAN_ANOMALY,BSTAR,MEAN_MOTION_DOT,MEAN_MOTION_DDOT,TLE_LINE0,TLE_LINE1,TLE_LINE2,SEMIMAJOR_AXIS,PERIOD,APOGEE,PERIGEE,DECAYED
52860.0,STARLINK-4191,PAYLOAD,2024-03-08 06:17:09,15.08836955,0.0001474,53.2165,67.623,97.4328,262.6831,0.00074358,0.00011565,0.0,0 STARLINK-4191,1 52860U 22062AG  24068.26192010  .00011565  00000-0  74358-3 0  9992,2 52860  53.2165  67.6230 0001474  97.4328 262.6831 15.08836955 95998,6917.89,95.438,540.774,538.735,0.0
52860.0,STARLINK-4191,PAYLOAD,2024-03-08 09:27:56,15.08840167,0.000154,53.2158,67.0288,95.6857,264.4311,0.00084655,0.00013211,0.0,0 STARLINK-4191,1 52860U 22062AG  24068.39440042  .00013211  00000-0  84655-3 0  9998,2 52860  53.2158  67.0288 0001540  95.6857 264.4311 15.08840167 95520,6917.88,95.438,540.81,538.68,0.0
52860.0,STARLINK-4191,PAYLOAD,2024-03-08 17:24:51,15.08841572,0.0001545,53.216,65.5417,95.6829,264.434,0.00055419,8.543e-05,0.0,0 STARLINK-4191,1 52860U 22062AG  24068.72560059  .00008543  00000-0  55419-3 0  9994,2 52860  53.2160  65.5417 0001545  95.6829 264.4340 15.08841572 95572,6917.876,95.437,540.809,538.672,0.0
52860.0,STARLINK-4191,PAYLOAD,2024-03-09 09:18:42,15.08852433,0.0001603,53.2163,62.5678,96.6336,263.4839,0.00051658,7.946e-05,0.0,0 STARLINK-4191,1 52860U 22062AG  24069.38799713  .00007946  00000-0  51658-3 0  9995,2 52860  53.2163  62.5678 0001603  96.6336 263.4839 15.08852433 96166,6917.842,95.437,540.816,538.598,0.0
52860.0,STARLINK-4191,PAYLOAD,2024-03-10 05:58:43,15.08850036,0.0001305,53.2154,58.7022,91.9836,268.1306,0.00015797,2.228e-05,0.0,0 STARLINK-4191,1 52860U 22062AG  24070.24911264  .00002228  00000-0  15797-3 0  9991,2 52860  53.2154  58.7022 0001305  91.9836 268.1306 15.08850036 96290,6917.85,95.437,540.617,538.812,0.0
52860.0,STARLINK-4191,PAYLOAD,2024-03-11 04:14:07,15.0883511,0.0001451,53.2167,54.5412,96.5207,263.595,-3.4398e-05,-8.35e-06,0.0,0 STARLINK-4191,1 52860U 22062AG  24071.17648037 -.00000835  00000-0 -34398-4 0  9992,2 52860  53.2167  54.5412 0001451  96.5207 263.5950 15.08835110 96432,6917.895,95.438,540.764,538.757,0.0
52860.0,STARLINK-4191,PAYLOAD,2024-03-12 07:15:41,15.08834913,0.0001202,53.2163,49.4869,89.8022,270.3108,-4.92e-05,-1.071e-05,0.0,0 STARLINK-4191,1 52860U 22062AG  24072.30256281 -.00001071  00000-0 -49200-4 0  9995,2 52860  53.2163  49.4869 0001202  89.8022 270.3108 15.08834913 96601,6917.896,95.438,540.592,538.929,0.0
52860.0,STARLINK-4191,PAYLOAD,2024-03-12 15:12:37,15.08829133,0.0001251,53.2163,47.9994,93.773,266.3405,5.438e-05,5.77e-06,0.0,0 STARLINK-4191,1 52860U 22062AG  24072.63376775  .00000577  00000-0  54380-4 0  9995,2 52860  53.2163  47.9994 0001251  93.7730 266.3405 15.08829133 96161,6917.914,95.438,540.644,538.913,0.0
52860.0,STARLINK-4191,PAYLOAD,2024-03-13 07:06:28,15.08844603,0.0001332,53.2168,45.0237,88.0056,272.1089,0.00022294,3.262e-05,0.0,0 STARLINK-4191,1 52860U 22062AG  24073.29616184  .00003262  00000-0  22294-3 0  9991,2 52860  53.2168  45.0237 0001332  88.0056 272.1089 15.08844603 96750,6917.866,95.437,540.653,538.81,0.0
52860.0,STARLINK-4191,PAYLOAD,2024-03-13 15:03:24,15.08846405,0.0001436,53.2173,43.5372,83.4821,276.6335,0.0002303,3.38e-05,0.0,0 STARLINK-4191,1 52860U 22062AG  24073.62736234  .00003380  00000-0  23030-3 0  9997,2 52860  53.2173  43.5372 0001436  83.4821 276.6335 15.08846405 96310,6917.861,95.437,540.719,538.732,0.0
52860.0,STARLINK-4191,PAYLOAD,2024-03-14 05:21:52,15.08842207,0.0001584,53.2181,40.8589,83.2863,276.831,0.00010084,1.317e-05,0.0,0 STARLINK-4191,1 52860U 22062AG  24074.22352487  .00001317  00000-0  10084-3 0  9991,2 52860  53.2181  40.8589 0001584  83.2863 276.8310 15.08842207 96891,6917.874,95.437,540.834,538.643,0.0
52860.0,STARLINK-4191,PAYLOAD,2024-03-14 21:15:44,15.08837352,0.0001487,53.2183,37.8859,124.3877,235.7256,2.2564e-06,-2.52e-06,0.0,0 STARLINK-4191,1 52860U 22062AG  24074.88592667 -.00000252  00000-0  22564-5 0  9995,2 52860  53.2183  37.8859 0001487 124.3877 235.7256 15.08837352 96509,6917.888,95.438,540.782,538.725,0.0
52860.0,STARLINK-4191,PAYLOAD,2024-03-15 06:48:02,15.08849671,0.0001814,53.2177,36.1048,125.0709,235.0453,0.00011668,1.57e-05,0.0,0 STARLINK-4191,1 52860U 22062AG  24075.28336004  .00001570  00000-0  11668-3 0  9995,2 52860  53.2177  36.1048 0001814 125.0709 235.0453 15.08849671 97050,6917.851,95.437,540.971,538.461,0.0
52860.0,STARLINK-4191,PAYLOAD,2024-03-15 21:06:30,15.08841873,0.0001948,53.2181,33.4274,127.5018,232.6151,0.00012278,1.667e-05,0.0,0 STARLINK-4191,1 52860U 22062AG  24075.87952398  .00001667  00000-0  12278-3 0  9995,2 52860  53.2181  33.4274 0001948 127.5018 232.6151 15.08841873 97148,6917.875,95.437,541.087,538.392,0.0
52860.0,STARLINK-4191,PAYLOAD,2024-03-16 03:28:02,15.0884822,0.0002047,53.2181,32.2377,137.4607,222.6544,0.00010355,1.361e-05,0.0,0 STARLINK-4191,1 52860U 22062AG  24076.14447909  .00001361  00000-0  10355-3 0  9998,2 52860  53.2181  32.2377 0002047 137.4607 222.6544 15.08848220 96691,6917.855,95.437,541.136,538.304,0.0
52860.0,STARLINK-4191,PAYLOAD,2024-03-16 20:57:18,15.08838089,0.0001525,53.2181,28.9691,120.1057,240.0087,9.3233e-06,-1.4e-06,0.0,0 STARLINK-4191,1 52860U 22062AG  24076.87312757 -.00000140  00000-0  93233-5 0  9993,2 52860  53.2181  28.9691 0001525 120.1057 240.0087 15.08838089 97295,6917.886,95.438,540.806,538.696,0.0
52860.0,STARLINK-4191,PAYLOAD,2024-03-17 06:29:36,15.08842913,0.0001471,53.2186,27.1831,114.4046,245.71,1.8644e-05,9e-08,0.0,0 STARLINK-4191,1 52860U 22062AG  24077.27056668  .00000009  00000-0  18644-4 0  9999,2 52860  53.2186  27.1831 0001471 114.4046 245.7100 15.08842913 96862,6917.871,95.437,540.754,538.719,0.0
52860.0,STARLINK-4191,PAYLOAD,2024-03-18 03:09:37,15.08846441,0.0001424,53.2189,23.3176,91.4416,268.6739,7.5744e-05,9.18e-06,0.0,0 STARLINK-4191,1 52860U 22062AG  24078.13168318  .00000918  00000-0  75744-4 0  9994,2 52860  53.2189  23.3176 0001424  91.4416 268.6739 15.08846441 97489,6917.861,95.437,540.711,538.741,0.0
52860.0,STARLINK-4191,PAYLOAD,2024-03-18 06:20:23,15.08848779,0.0001403,53.2188,22.722,89.6701,270.4452,9.3348e-05,1.198e-05,0.0,0 STARLINK-4191,1 52860U 22062AG  24078.26416066  .00001198  00000-0  93348-4 0  9995,2 52860  53.2188  22.7220 0001403  89.6701 270.4452 15.08848779 97012,6917.854,95.437,540.689,538.748,0.0
52860.0,STARLINK-4191,PAYLOAD,2024-03-19 03:00:24,15.08842385,0.0001333,53.219,18.8617,79.5754,280.5388,0.00013274,1.825e-05,0.0,0 STARLINK-4191,1 52860U 22062AG  24079.12528465  .00001825  00000-0  13274-3 0  9994,2 52860  53.2190  18.8617 0001333  79.5754 280.5388 15.08842385 97634,6917.873,95.437,540.66,538.816,0.0
52860.0,STARLINK-4191,PAYLOAD,2024-03-19 06:11:10,15.08851268,0.0001263,53.2184,18.2622,78.4389,281.6744,0.00018222,2.614e-05,0.0,0 STARLINK-4191,1 52860U 22062AG  24079.25775856  .00002614  00000-0  18222-3 0  9991,2 52860  53.2184  18.2622 0001263  78.4389 281.6744 15.08851268 97651,6917.846,95.437,540.585,538.837,0.0
52860.0,STARLINK-4191,PAYLOAD,2024-03-20 01:15:47,15.08850302,0.0001377,53.2194,14.6906,83.2049,276.91,0.00010223,1.34e-05,0.0,0 STARLINK-4191,1 52860U 22062AG  24080.05263755  .00001340  00000-0  10223-3 0  9999,2 52860  53.2194  14.6906 0001377  83.2049 276.9100 15.08850302 97774,6917.849,95.437,540.666,538.761,0.0
52860.0,STARLINK-4191,PAYLOAD,2024-03-20 04:26:33,15.08861643,0.0001399,53.2184,14.0954,96.9419,263.1732,0.00012934,1.772e-05,0.0,0 STARLINK-4191,1 52860U 22062AG  24080.18510815  .00001772  00000-0  12934-3 0  9995,2 52860  53.2184  14.0954 0001399  96.9419 263.1732 15.08861643 97797,6917.814,95.436,540.647,538.711,0.0
52860.0,STARLINK-4191,PAYLOAD,2024-03-21 02:41:59,15.08835735,0.0001157,53.2184,9.9365,82.2031,277.9092,-8.3809e-05,-1.621e-05,0.0,0 STARLINK-4191,1 52860U 22062AG  24081.11249300 -.00001621  00000-0 -83809-4 0  9992,2 52860  53.2184   9.9365 0001157  82.2031 277.9092 15.08835735 97937,6917.893,95.438,540.559,538.958,0.0
52860.0,STARLINK-4191,PAYLOAD,2024-03-21 12:14:18,15.08835565,0.0001159,53.2187,8.151,79.6423,280.47,-4.2016e-05,-9.56e-06,0.0,0 STARLINK-4191,1 52860U 22062AG  24081.50993336 -.00000956  00000-0 -42016-4 0  9995,2 52860  53.2187   8.1510 0001159  79.6423 280.4700 15.08835565 97509,6917.894,95.438,540.561,538.957,0.0
52860.0,STARLINK-4191,PAYLOAD,2024-03-22 04:08:07,15.08861354,0.0001356,53.2184,5.1765,101.3408,258.7737,0.00028266,4.216e-05,0.0,0 STARLINK-4191,1 52860U 22062AG  24082.17231380  .00004216  00000-0  28266-3 0  9994,2 52860  53.2184   5.1765 0001356 101.3408 258.7737 15.08861354 98098,6917.815,95.436,540.618,538.742,0.0
52860.0,STARLINK-4191,PAYLOAD,2024-03-22 18:26:38,15.08827755,0.0001138,53.2181,2.5044,85.5616,274.5506,9.6111e-05,1.242e-05,0.0,0 STARLINK-4191,1 52860U 22062AG  24082.76849894  .00001242  00000-0  96111-4 0  9995,2 52860  53.2181   2.5044 0001138  85.5616 274.5506 15.08827755 98185,6917.918,95.438,540.57,538.996,0.0
52860.0,STARLINK-4191,PAYLOAD,2024-03-23 18:17:24,15.08846695,0.000147,53.2192,358.0419,96.5337,263.5823,0.00021176,3.084e-05,0.0,0 STARLINK-4191,1 52860U 22062AG  24083.76209416  .00003084  00000-0  21176-3 0  9990,2 52860  53.2192 358.0419 0001470  96.5337 263.5823 15.08846695 98334,6917.86,95.437,540.742,538.708,0.0
52860.0,STARLINK-4191,PAYLOAD,2024-03-24 00:38:56,15.08871851,0.0001701,53.219,356.8514,84.7612,275.3575,0.00057324,8.855e-05,0.0,0 STARLINK-4191,1 52860U 22062AG  24084.02704255  .00008855  00000-0  57324-3 0  9996,2 52860  53.2190 356.8514 0001701  84.7612 275.3575 15.08871851 98377,6917.783,95.436,540.825,538.471,0.0
52860.0,STARLINK-4191,PAYLOAD,2024-03-24 21:18:57,15.08854666,0.0001343,53.2186,352.9873,112.6785,247.4349,0.0003569,5.399e-05,0.0,0 STARLINK-4191,1 52860U 22062AG  24084.88817001  .00005399  00000-0  35690-3 0  9996,2 52860  53.2186 352.9873 0001343 112.6785 247.4349 15.08854666 98500,6917.836,95.437,540.63,538.771,0.0
